{
    "links": {
        "self": "http://www.neowsapp.com/rest/v1/neo/3672457?api_key=iIulBulltgU6a56xZRHN4H3l9WmuAYTsLGpBGhQ2"
    },
    "id": "3672457",
    "neo_reference_id": "3672457",
    "name": "(2014 KC39)",
    "designation": "2014 KC39",
    "nasa_jpl_url": "http://ssd.jpl.nasa.gov/sbdb.cgi?sstr=3672457",
    "absolute_magnitude_h": 23.3,
    "estimated_diameter": {
        "kilometers": {
            "estimated_diameter_min": 0.058150704,
            "estimated_diameter_max": 0.130028927
        },
        "meters": {
            "estimated_diameter_min": 58.1507039646,
            "estimated_diameter_max": 130.0289270043
        },
        "miles": {
            "estimated_diameter_min": 0.0361331611,
            "estimated_diameter_max": 0.0807962044
        },
        "feet": {
            "estimated_diameter_min": 190.7831555951,
            "estimated_diameter_max": 426.6041048727
        }
    },
    "is_potentially_hazardous_asteroid": false,
    "close_approach_data": [
        {
            "close_approach_date": "1963-05-16",
            "close_approach_date_full": "1963-May-16 00:04",
            "epoch_date_close_approach": -209260560000,
            "relative_velocity": {
                "kilometers_per_second": "6.6713184366",
                "kilometers_per_hour": "24016.7463716958",
                "miles_per_hour": "14923.0722107907"
            },
            "miss_distance": {
                "astronomical": "0.3004068888",
                "lunar": "116.8582797432",
                "kilometers": "44940230.697806856",
                "miles": "27924564.4763563728"
            },
            "orbiting_body": "Earth"
        },
        {
            "close_approach_date": "2003-05-16",
            "close_approach_date_full": "2003-May-16 14:33",
            "epoch_date_close_approach": 1053095580000,
            "relative_velocity": {
                "kilometers_per_second": "5.7969565219",
                "kilometers_per_hour": "20869.0434787903",
                "miles_per_hour": "12967.2120438072"
            },
            "miss_distance": {
                "astronomical": "0.3032523797",
                "lunar": "117.9651757033",
                "kilometers": "45365910.075551239",
                "miles": "28189069.3764315382"
            },
            "orbiting_body": "Earth"
        },
        {
            "close_approach_date": "2014-05-17",
            "close_approach_date_full": "2014-May-17 18:35",
            "epoch_date_close_approach": 1400351700000,
            "relative_velocity": {
                "kilometers_per_second": "4.8657919336",
                "kilometers_per_hour": "17516.8509608026",
                "miles_per_hour": "10884.2899761721"
            },
            "miss_distance": {
                "astronomical": "0.2086117531",
                "lunar": "81.1499719559",
                "kilometers": "31207873.920725897",
                "miles": "19391673.6504834986"
            },
            "orbiting_body": "Earth"
        },
        {
            "close_approach_date": "2025-05-15",
            "close_approach_date_full": "2025-May-15 11:17",
            "epoch_date_close_approach": 1747307820000,
            "relative_velocity": {
                "kilometers_per_second": "9.1299462766",
                "kilometers_per_hour": "32867.8065958745",
                "miles_per_hour": "20422.7768261977"
            },
            "miss_distance": {
                "astronomical": "0.4239536661",
                "lunar": "164.9179761129",
                "kilometers": "63422565.427251207",
                "miles": "39408954.7389803766"
            },
            "orbiting_body": "Earth"
        },
        {
            "close_approach_date": "2065-05-18",
            "close_approach_date_full": "2065-May-18 10:46",
            "epoch_date_close_approach": 3009869160000,
            "relative_velocity": {
                "kilometers_per_second": "5.2044570621",
                "kilometers_per_hour": "18736.0454234832",
                "miles_per_hour": "11641.8500021638"
            },
            "miss_distance": {
                "astronomical": "0.2514413801",
                "lunar": "97.8106968589",
                "kilometers": "37615094.892820387",
                "miles": "23372936.1489478606"
            },
            "orbiting_body": "Earth"
        }
    ],
    "orbital_data": {
        "orbit_id": "7",
        "orbit_determination_date": "2017-04-06 08:40:24",
        "first_observation_date": "2014-05-23",
        "last_observation_date": "2014-06-21",
        "data_arc_in_days": 29,
        "observations_used": 22,
        "orbit_uncertainty": "6",
        "minimum_orbit_intersection": ".204985",
        "jupiter_tisserand_invariant": "3.366",
        "epoch_osculation": "2459000.5",
        "eccentricity": ".4884507270634754",
        "semi_major_axis": "2.371146360540079",
        "inclination": "6.040119329113474",
        "ascending_node_longitude": "217.911021604922",
        "orbital_period": "1333.631883496618",
        "perihelion_distance": "1.212958196760364",
        "perihelion_argument": "19.78947739884774",
        "aphelion_distance": "3.529334524319795",
        "perihelion_time": "2459461.238033293455",
        "mean_anomaly": "235.6285793417262",
        "mean_motion": ".2699395571258573",
        "equinox": "J2000",
        "orbit_class": {
            "orbit_class_type": "AMO",
            "orbit_class_description": "Near-Earth asteroid orbits similar to that of 1221 Amor",
            "orbit_class_range": "1.017 AU < q (perihelion) < 1.3 AU"
        }
    },
    "is_sentry_object": false
}